*******************************************************************************
Ephemeris / WWW_USER Mon Dec 26 17:35:10 2016 Pasadena, USA      / Horizons    
*******************************************************************************
Target body name: Moon (301)                      {source: DE431mx}
Center body name: Earth (399)                     {source: DE431mx}
Center-site name: (user defined site below)
*******************************************************************************
Start time      : A.D. 2018-Apr-01 00:00:00.0000 UT      
Stop  time      : A.D. 2018-Jul-02 00:00:00.0000 UT      
Step-size       : 2 minutes
*******************************************************************************
Target pole/equ : IAU_MOON                        {East-longitude +}
Target radii    : 1737.4 x 1737.4 x 1737.4 km     {Equator, meridian, pole}    
Center geodetic : 284.844200,39.9494000,-1.01E-12 {E-lon(deg),Lat(deg),Alt(km)}
Center cylindric: 284.844200,4896.31709,4073.6801 {E-lon(deg),Dxy(km),Dz(km)}
Center pole/equ : High-precision EOP model        {East-longitude +}
Center radii    : 6378.1 x 6378.1 x 6356.8 km     {Equator, meridian, pole}    
Target primary  : Earth
Vis. interferer : MOON (R_eq= 1737.400) km        {source: DE431mx}
Rel. light bend : Sun, EARTH                      {source: DE431mx}
Rel. lght bnd GM: 1.3271E+11, 3.9860E+05 km^3/s^2                              
Atmos refraction: NO (AIRLESS)
RA format       : HMS
Time format     : CAL 
RTS-only print  : NO       
EOP file        : eop.161226.p170319                                           
EOP coverage    : DATA-BASED 1962-JAN-20 TO 2016-DEC-26. PREDICTS-> 2017-MAR-18
Units conversion: 1 au= 149597870.700 km, c= 299792.458 km/s, 1 day= 86400.0 s 
Table cut-offs 1: Elevation (-90.0deg=NO ),Airmass (>38.000=NO), Daylight (NO )
Table cut-offs 2: Solar Elongation (  0.0,180.0=NO ),Local Hour Angle( 0.0=NO )
*******************************************************************************
 Date__(UT)__HR:MN     Azi_(a-appr)_Elev
****************************************
$$SOE
 2018-May-30 11:12 *   250.6087  -7.6453
 2018-May-30 11:14 *   250.9027  -7.9962
 2018-May-30 11:16 *   251.1960  -8.3476
 2018-May-30 11:18 *   251.4889  -8.6995
 2018-May-30 11:20 *   251.7813  -9.0521
 2018-May-30 11:22 *   252.0732  -9.4052
 2018-May-30 11:24 *   252.3647  -9.7588
 2018-May-30 11:26 *   252.6557 -10.1130
 2018-May-30 11:28 *   252.9463 -10.4677
 2018-May-30 11:30 *   253.2365 -10.8228
 2018-May-30 11:32 *   253.5263 -11.1785
 2018-May-30 11:34 *   253.8158 -11.5347
 2018-May-30 11:36 *   254.1049 -11.8914
 2018-May-30 11:38 *   254.3937 -12.2485
 2018-May-30 11:40 *   254.6823 -12.6061
 2018-May-30 11:42 *   254.9705 -12.9642
 2018-May-30 11:44 *   255.2585 -13.3227
 2018-May-30 11:46 *   255.5463 -13.6816
 2018-May-30 11:48 *   255.8339 -14.0409
 2018-May-30 11:50 *   256.1213 -14.4007
 2018-May-30 11:52 *   256.4085 -14.7609
 2018-May-30 11:54 *   256.6956 -15.1214
 2018-May-30 11:56 *   256.9826 -15.4824
 2018-May-30 11:58 *   257.2694 -15.8437
 2018-May-30 12:00 *   257.5562 -16.2054
 2018-May-30 12:02 *   257.8430 -16.5675
 2018-May-30 12:04 *   258.1297 -16.9299
 2018-May-30 12:06 *   258.4164 -17.2927
 2018-May-30 12:08 *   258.7031 -17.6557
 2018-May-30 12:10 *   258.9899 -18.0191
 2018-May-30 12:12 *   259.2767 -18.3829
 2018-May-30 12:14 *   259.5636 -18.7469
 2018-May-30 12:16 *   259.8507 -19.1112
 2018-May-30 12:18 *   260.1378 -19.4758
 2018-May-30 12:20 *   260.4251 -19.8407
 2018-May-30 12:22 *   260.7126 -20.2059
 2018-May-30 12:24 *   261.0004 -20.5713
 2018-May-30 12:26 *   261.2883 -20.9370
 2018-May-30 12:28 *   261.5765 -21.3029
 2018-May-30 12:30 *   261.8650 -21.6690
 2018-May-30 12:32 *   262.1538 -22.0354
 2018-May-30 12:34 *   262.4430 -22.4020
 2018-May-30 12:36 *   262.7325 -22.7688
 2018-May-30 12:38 *   263.0224 -23.1358
 2018-May-30 12:40 *   263.3127 -23.5030
 2018-May-30 12:42 *   263.6035 -23.8704
 2018-May-30 12:44 *   263.8947 -24.2379
 2018-May-30 12:46 *   264.1865 -24.6056
 2018-May-30 12:48 *   264.4788 -24.9735
 2018-May-30 12:50 *   264.7716 -25.3415
 2018-May-30 12:52 *   265.0650 -25.7096
 2018-May-30 12:54 *   265.3591 -26.0779
 2018-May-30 12:56 *   265.6538 -26.4462
 2018-May-30 12:58 *   265.9492 -26.8147
 2018-May-30 13:00 *   266.2453 -27.1833
 2018-May-30 13:02 *   266.5422 -27.5520
 2018-May-30 13:04 *   266.8398 -27.9208
 2018-May-30 13:06 *   267.1383 -28.2896
 2018-May-30 13:08 *   267.4376 -28.6585
 2018-May-30 13:10 *   267.7378 -29.0274
 2018-May-30 13:12 *   268.0389 -29.3964
 2018-May-30 13:14 *   268.3409 -29.7654
 2018-May-30 13:16 *   268.6439 -30.1345
 2018-May-30 13:18 *   268.9480 -30.5035
 2018-May-30 13:20 *   269.2531 -30.8725
 2018-May-30 13:22 *   269.5593 -31.2416
 2018-May-30 13:24 *   269.8667 -31.6106
 2018-May-30 13:26 *   270.1752 -31.9796
 2018-May-30 13:28 *   270.4849 -32.3486
 2018-May-30 13:30 *   270.7959 -32.7175
 2018-May-30 13:32 *   271.1082 -33.0863
 2018-May-30 13:34 *   271.4218 -33.4551
 2018-May-30 13:36 *   271.7368 -33.8238
 2018-May-30 13:38 *   272.0533 -34.1924
 2018-May-30 13:40 *   272.3712 -34.5609
 2018-May-30 13:42 *   272.6906 -34.9293
 2018-May-30 13:44 *   273.0116 -35.2975
 2018-May-30 13:46 *   273.3342 -35.6656
 2018-May-30 13:48 *   273.6585 -36.0336
 2018-May-30 13:50 *   273.9844 -36.4014
 2018-May-30 13:52 *   274.3122 -36.7690
 2018-May-30 13:54 *   274.6417 -37.1365
 2018-May-30 13:56 *   274.9731 -37.5037
 2018-May-30 13:58 *   275.3064 -37.8707
 2018-May-30 14:00 *   275.6417 -38.2375
 2018-May-30 14:02 *   275.9791 -38.6041
 2018-May-30 14:04 *   276.3185 -38.9704
 2018-May-30 14:06 *   276.6600 -39.3364
 2018-May-30 14:08 *   277.0038 -39.7021
 2018-May-30 14:10 *   277.3498 -40.0676
 2018-May-30 14:12 *   277.6982 -40.4327
 2018-May-30 14:14 *   278.0489 -40.7975
 2018-May-30 14:16 *   278.4022 -41.1620
 2018-May-30 14:18 *   278.7579 -41.5261
 2018-May-30 14:20 *   279.1163 -41.8898
 2018-May-30 14:22 *   279.4773 -42.2532
 2018-May-30 14:24 *   279.8410 -42.6161
 2018-May-30 14:26 *   280.2076 -42.9786
 2018-May-30 14:28 *   280.5771 -43.3407
 2018-May-30 14:30 *   280.9495 -43.7023
 2018-May-30 14:32 *   281.3250 -44.0635
 2018-May-30 14:34 *   281.7036 -44.4241
 2018-May-30 14:36 *   282.0855 -44.7842
 2018-May-30 14:38 *   282.4706 -45.1438
 2018-May-30 14:40 *   282.8591 -45.5028
 2018-May-30 14:42 *   283.2511 -45.8613
 2018-May-30 14:44 *   283.6467 -46.2191
 2018-May-30 14:46 *   284.0460 -46.5763
 2018-May-30 14:48 *   284.4490 -46.9329
 2018-May-30 14:50 *   284.8559 -47.2888
 2018-May-30 14:52 *   285.2667 -47.6440
 2018-May-30 14:54 *   285.6817 -47.9985
 2018-May-30 14:56 *   286.1008 -48.3523
 2018-May-30 14:58 *   286.5242 -48.7053
 2018-May-30 15:00 *   286.9520 -49.0575
 2018-May-30 15:02 *   287.3843 -49.4089
 2018-May-30 15:04 *   287.8213 -49.7594
 2018-May-30 15:06 *   288.2630 -50.1091
 2018-May-30 15:08 *   288.7097 -50.4578
 2018-May-30 15:10 *   289.1613 -50.8056
 2018-May-30 15:12 *   289.6181 -51.1525
 2018-May-30 15:14 *   290.0802 -51.4983
 2018-May-30 15:16 *   290.5477 -51.8431
 2018-May-30 15:18 *   291.0208 -52.1868
 2018-May-30 15:20 *   291.4996 -52.5295
 2018-May-30 15:22 *   291.9842 -52.8709
 2018-May-30 15:24 *   292.4749 -53.2112
 2018-May-30 15:26 *   292.9718 -53.5503
 2018-May-30 15:28 *   293.4750 -53.8882
 2018-May-30 15:30 *   293.9846 -54.2247
 2018-May-30 15:32 *   294.5010 -54.5598
 2018-May-30 15:34 *   295.0242 -54.8936
 2018-May-30 15:36 *   295.5544 -55.2260
 2018-May-30 15:38 *   296.0919 -55.5569
 2018-May-30 15:40 *   296.6367 -55.8862
 2018-May-30 15:42 *   297.1891 -56.2140
 2018-May-30 15:44 *   297.7493 -56.5401
 2018-May-30 15:46 *   298.3174 -56.8645
 2018-May-30 15:48 *   298.8938 -57.1872
 2018-May-30 15:50 *   299.4785 -57.5081
 2018-May-30 15:52 *   300.0718 -57.8271
 2018-May-30 15:54 *   300.6739 -58.1443
 2018-May-30 15:56 *   301.2850 -58.4594
 2018-May-30 15:58 *   301.9054 -58.7725
 2018-May-30 16:00 *   302.5352 -59.0835
 2018-May-30 16:02 *   303.1748 -59.3922
 2018-May-30 16:04 *   303.8243 -59.6988
 2018-May-30 16:06 *   304.4839 -60.0030
 2018-May-30 16:08 *   305.1540 -60.3048
 2018-May-30 16:10 *   305.8347 -60.6041
 2018-May-30 16:12 *   306.5264 -60.9008
 2018-May-30 16:14 *   307.2291 -61.1949
 2018-May-30 16:16 *   307.9433 -61.4863
 2018-May-30 16:18 *   308.6691 -61.7748
 2018-May-30 16:20 *   309.4068 -62.0604
 2018-May-30 16:22 *   310.1566 -62.3430
 2018-May-30 16:24 *   310.9188 -62.6225
 2018-May-30 16:26 *   311.6937 -62.8987
 2018-May-30 16:28 *   312.4814 -63.1717
 2018-May-30 16:30 *   313.2822 -63.4412
 2018-May-30 16:32 *   314.0964 -63.7072
 2018-May-30 16:34 *   314.9241 -63.9696
 2018-May-30 16:36 *   315.7657 -64.2282
 2018-May-30 16:38 *   316.6213 -64.4829
 2018-May-30 16:40 *   317.4911 -64.7336
 2018-May-30 16:42 *   318.3753 -64.9802
 2018-May-30 16:44 *   319.2741 -65.2226
 2018-May-30 16:46 *   320.1877 -65.4606
 2018-May-30 16:48 *   321.1163 -65.6941
 2018-May-30 16:50 *   322.0599 -65.9229
 2018-May-30 16:52 *   323.0188 -66.1469
 2018-May-30 16:54 *   323.9929 -66.3661
 2018-May-30 16:56 *   324.9825 -66.5801
 2018-May-30 16:58 *   325.9874 -66.7890
 2018-May-30 17:00 *   327.0078 -66.9925
 2018-May-30 17:02 *   328.0437 -67.1906
 2018-May-30 17:04 *   329.0950 -67.3830
 2018-May-30 17:06 *   330.1617 -67.5695
 2018-May-30 17:08 *   331.2437 -67.7502
 2018-May-30 17:10 *   332.3407 -67.9248
 2018-May-30 17:12 *   333.4528 -68.0931
 2018-May-30 17:14 *   334.5796 -68.2551
 2018-May-30 17:16 *   335.7208 -68.4105
 2018-May-30 17:18 *   336.8763 -68.5593
 2018-May-30 17:20 *   338.0456 -68.7013
 2018-May-30 17:22 *   339.2284 -68.8363
 2018-May-30 17:24 *   340.4242 -68.9642
 2018-May-30 17:26 *   341.6325 -69.0849
 2018-May-30 17:28 *   342.8529 -69.1983
 2018-May-30 17:30 *   344.0847 -69.3042
 2018-May-30 17:32 *   345.3273 -69.4025
 2018-May-30 17:34 *   346.5800 -69.4931
